{
  "type": "FeatureCollection",
  "features": [
    {
      "type": "Feature",
      "properties": {
        "norad_id": 66645,
        "name": "SHENZHOU-22",
        "group": "last-30-days",
        "lat": 0.04597055636012281,
        "lon": -14.58944340084253,
        "alt_km": 387.5971642685681,
        "timestamp": "2025-12-17T21:39:44.491293+00:00",
        "meta_object_name": "SHENZHOU-22",
        "meta_object_id": "2025-272A",
        "meta_epoch": "2025-12-17T10:54:09.513792",
        "meta_mean_motion": 15.59380496,
        "meta_eccentricity": 0.00077365,
        "meta_inclination": 41.4681,
        "meta_ra_of_asc_node": 348.0821,
        "meta_arg_of_pericenter": 71.5092,
        "meta_mean_anomaly": 288.6587,
        "meta_ephemeris_type": 0,
        "meta_classification_type": "U",
        "meta_norad_cat_id": 66645,
        "meta_element_set_no": 999,
        "meta_rev_at_epoch": 26357,
        "meta_bstar": 0.00026147589,
        "meta_mean_motion_dot": 0.00020985,
        "meta_mean_motion_ddot": 0,
        "tle_line1": "1 66645U 25272A   25351.45427678  .00020985  00000+0  26148-3 0  9991",
        "tle_line2": "2 66645  41.4681 348.0821 0007736  71.5092 288.6587 15.59380496263573"
      },
      "geometry": {
        "type": "Point",
        "coordinates": [
          -14.58944340084253,
          0.04597055636012281
        ]
      }
    },
    {
      "type": "Feature",
      "properties": {
        "norad_id": 66647,
        "name": "COSMOS 2597 (RODNIK-S 22)",
        "group": "last-30-days",
        "lat": 38.61188753378346,
        "lon": 97.20392923668719,
        "alt_km": 1499.4509023414557,
        "timestamp": "2025-12-17T21:39:44.491303+00:00",
        "meta_object_name": "COSMOS 2597 (RODNIK-S 22)",
        "meta_object_id": "2025-273A",
        "meta_epoch": "2025-12-17T15:06:18.735264",
        "meta_mean_motion": 12.41952008,
        "meta_eccentricity": 0.00076624,
        "meta_inclination": 82.4991,
        "meta_ra_of_asc_node": 283.4128,
        "meta_arg_of_pericenter": 275.2154,
        "meta_mean_anomaly": 84.805,
        "meta_ephemeris_type": 0,
        "meta_classification_type": "U",
        "meta_norad_cat_id": 66647,
        "meta_element_set_no": 999,
        "meta_rev_at_epoch": 274,
        "meta_bstar": -8.7928608e-05,
        "meta_mean_motion_dot": -2e-08,
        "meta_mean_motion_ddot": 0,
        "tle_line1": "1 66647U 25273A   25351.62938351 -.00000002  00000+0 -87929-4 0  9993",
        "tle_line2": "2 66647  82.4991 283.4128 0007662 275.2154  84.8050 12.41952008  2749"
      },
      "geometry": {
        "type": "Point",
        "coordinates": [
          97.20392923668719,
          38.61188753378346
        ]
      }
    },
    {
      "type": "Feature",
      "properties": {
        "norad_id": 66648,
        "name": "COSMOS 2598 (RODNIK-S 23)",
        "group": "last-30-days",
        "lat": -20.36023710401042,
        "lon": 106.03841818638224,
        "alt_km": 1492.121251539108,
        "timestamp": "2025-12-17T21:39:44.491312+00:00",
        "meta_object_name": "COSMOS 2598 (RODNIK-S 23)",
        "meta_object_id": "2025-273B",
        "meta_epoch": "2025-12-17T14:47:34.289376",
        "meta_mean_motion": 12.43233447,
        "meta_eccentricity": 0.00080306,
        "meta_inclination": 82.5029,
        "meta_ra_of_asc_node": 283.4156,
        "meta_arg_of_pericenter": 225.1927,
        "meta_mean_anomaly": 134.8501,
        "meta_ephemeris_type": 0,
        "meta_classification_type": "U",
        "meta_norad_cat_id": 66648,
        "meta_element_set_no": 999,
        "meta_rev_at_epoch": 274,
        "meta_bstar": -8.0257922e-05,
        "meta_mean_motion_dot": -1e-08,
        "meta_mean_motion_ddot": 0,
        "tle_line1": "1 66648U 25273B   25351.61636909 -.00000001  00000+0 -80258-4 0  9994",
        "tle_line2": "2 66648  82.5029 283.4156 0008030 225.1927 134.8501 12.43233447  2744"
      },
      "geometry": {
        "type": "Point",
        "coordinates": [
          106.03841818638224,
          -20.36023710401042
        ]
      }
    },
    {
      "type": "Feature",
      "properties": {
        "norad_id": 66649,
        "name": "COSMOS 2599 (RODNIK-S 24)",
        "group": "last-30-days",
        "lat": 71.03956727479672,
        "lon": 80.73811677168082,
        "alt_km": 1499.4641398253225,
        "timestamp": "2025-12-17T21:39:44.491324+00:00",
        "meta_object_name": "COSMOS 2599 (RODNIK-S 24)",
        "meta_object_id": "2025-273C",
        "meta_epoch": "2025-12-17T13:20:47.529024",
        "meta_mean_motion": 12.4115097,
        "meta_eccentricity": 0.00062814,
        "meta_inclination": 82.5047,
        "meta_ra_of_asc_node": 283.4827,
        "meta_arg_of_pericenter": 266.8151,
        "meta_mean_anomaly": 93.2209,
        "meta_ephemeris_type": 0,
        "meta_classification_type": "U",
        "meta_norad_cat_id": 66649,
        "meta_element_set_no": 999,
        "meta_rev_at_epoch": 273,
        "meta_bstar": -7.6923492e-05,
        "meta_mean_motion_dot": -1e-08,
        "meta_mean_motion_ddot": 0,
        "tle_line1": "1 66649U 25273C   25351.55610566 -.00000001  00000+0 -76923-4 0  9993",
        "tle_line2": "2 66649  82.5047 283.4827 0006281 266.8151  93.2209 12.41150970  2736"
      },
      "geometry": {
        "type": "Point",
        "coordinates": [
          80.73811677168082,
          71.03956727479672
        ]
      }
    },
    {
      "type": "Feature",
      "properties": {
        "norad_id": 66650,
        "name": "BEE-1000",
        "group": "last-30-days",
        "lat": -77.78885454605316,
        "lon": -42.06880779341417,
        "alt_km": 595.0114962395019,
        "timestamp": "2025-12-17T21:39:44.491335+00:00",
        "meta_object_name": "BEE-1000",
        "meta_object_id": "2025-274A",
        "meta_epoch": "2025-12-17T12:21:48.137472",
        "meta_mean_motion": 14.91677845,
        "meta_eccentricity": 0.00105899,
        "meta_inclination": 97.7397,
        "meta_ra_of_asc_node": 278.6151,
        "meta_arg_of_pericenter": 233.7186,
        "meta_mean_anomaly": 126.3056,
        "meta_ephemeris_type": 0,
        "meta_classification_type": "U",
        "meta_norad_cat_id": 66650,
        "meta_element_set_no": 999,
        "meta_rev_at_epoch": 311,
        "meta_bstar": 0.00012313753,
        "meta_mean_motion_dot": 1.183e-05,
        "meta_mean_motion_ddot": 0,
        "tle_line1": "1 66650U 25274A   25351.51514048  .00001183  00000+0  12314-3 0  9993",
        "tle_line2": "2 66650  97.7397 278.6151 0010589 233.7186 126.3056 14.91677845  3110"
      },
      "geometry": {
        "type": "Point",
        "coordinates": [
          -42.06880779341417,
          -77.78885454605316
        ]
      }
    },
    {
      "type": "Feature",
      "properties": {
        "norad_id": 66651,
        "name": "2025-274B",
        "group": "last-30-days",
        "lat": -71.19413498628936,
        "lon": -57.4650225669522,
        "alt_km": 595.2497618993193,
        "timestamp": "2025-12-17T21:39:44.491345+00:00",
        "meta_object_name": "2025-274B",
        "meta_object_id": "2025-274B",
        "meta_epoch": "2025-12-17T12:19:47.279424",
        "meta_mean_motion": 14.91833349,
        "meta_eccentricity": 0.00108541,
        "meta_inclination": 97.7393,
        "meta_ra_of_asc_node": 278.6155,
        "meta_arg_of_pericenter": 232.7713,
        "meta_mean_anomaly": 127.2516,
        "meta_ephemeris_type": 0,
        "meta_classification_type": "U",
        "meta_norad_cat_id": 66651,
        "meta_element_set_no": 999,
        "meta_rev_at_epoch": 311,
        "meta_bstar": 0.00023659654,
        "meta_mean_motion_dot": 2.335e-05,
        "meta_mean_motion_ddot": 0,
        "tle_line1": "1 66651U 25274B   25351.51374166  .00002335  00000+0  23660-3 0  9995",
        "tle_line2": "2 66651  97.7393 278.6155 0010854 232.7713 127.2516 14.91833349  3115"
      },
      "geometry": {
        "type": "Point",
        "coordinates": [
          -57.4650225669522,
          -71.19413498628936
        ]
      }
    },
    {
      "type": "Feature",
      "properties": {
        "norad_id": 66652,
        "name": "2025-274C",
        "group": "last-30-days",
        "lat": -62.289628366884294,
        "lon": -65.99036162005453,
        "alt_km": 595.2818198003106,
        "timestamp": "2025-12-17T21:39:44.491354+00:00",
        "meta_object_name": "2025-274C",
        "meta_object_id": "2025-274C",
        "meta_epoch": "2025-12-17T09:04:06.633120",
        "meta_mean_motion": 14.91928653,
        "meta_eccentricity": 0.00104377,
        "meta_inclination": 97.7398,
        "meta_ra_of_asc_node": 278.4873,
        "meta_arg_of_pericenter": 240.2032,
        "meta_mean_anomaly": 119.815,
        "meta_ephemeris_type": 0,
        "meta_classification_type": "U",
        "meta_norad_cat_id": 66652,
        "meta_element_set_no": 999,
        "meta_rev_at_epoch": 309,
        "meta_bstar": 0.00019427292,
        "meta_mean_motion_dot": 1.911e-05,
        "meta_mean_motion_ddot": 0,
        "tle_line1": "1 66652U 25274C   25351.37785455  .00001911  00000+0  19427-3 0  9992",
        "tle_line2": "2 66652  97.7398 278.4873 0010437 240.2032 119.8150 14.91928653  3092"
      },
      "geometry": {
        "type": "Point",
        "coordinates": [
          -65.99036162005453,
          -62.289628366884294
        ]
      }
    }
  ]
}